{
    "links": {
        "self": "http://www.neowsapp.com/rest/v1/neo/3132520?api_key=iIulBulltgU6a56xZRHN4H3l9WmuAYTsLGpBGhQ2"
    },
    "id": "3132520",
    "neo_reference_id": "3132520",
    "name": "(2002 PE43)",
    "designation": "2002 PE43",
    "nasa_jpl_url": "http://ssd.jpl.nasa.gov/sbdb.cgi?sstr=3132520",
    "absolute_magnitude_h": 24.1,
    "estimated_diameter": {
        "kilometers": {
            "estimated_diameter_min": 0.040230458,
            "estimated_diameter_max": 0.0899580388
        },
        "meters": {
            "estimated_diameter_min": 40.2304579834,
            "estimated_diameter_max": 89.9580388169
        },
        "miles": {
            "estimated_diameter_min": 0.0249980399,
            "estimated_diameter_max": 0.0558973165
        },
        "feet": {
            "estimated_diameter_min": 131.9896957704,
            "estimated_diameter_max": 295.1379320721
        }
    },
    "is_potentially_hazardous_asteroid": false,
    "close_approach_data": [
        {
            "close_approach_date": "2002-08-09",
            "close_approach_date_full": "2002-Aug-09 10:21",
            "epoch_date_close_approach": 1028888460000,
            "relative_velocity": {
                "kilometers_per_second": "8.0928293772",
                "kilometers_per_hour": "29134.1857579977",
                "miles_per_hour": "18102.8500339069"
            },
            "miss_distance": {
                "astronomical": "0.0230877376",
                "lunar": "8.9811299264",
                "kilometers": "3453876.368078912",
                "miles": "2146139.2573245056"
            },
            "orbiting_body": "Earth"
        }
    ],
    "orbital_data": {
        "orbit_id": "8",
        "orbit_determination_date": "2017-04-06 09:14:58",
        "first_observation_date": "2002-08-10",
        "last_observation_date": "2002-08-14",
        "data_arc_in_days": 4,
        "observations_used": 17,
        "orbit_uncertainty": "8",
        "minimum_orbit_intersection": ".0184867",
        "jupiter_tisserand_invariant": "3.591",
        "epoch_osculation": "2452498.5",
        "eccentricity": ".5037787832274128",
        "semi_major_axis": "2.072644726441979",
        "inclination": "7.776409188348001",
        "ascending_node_longitude": "318.7271426719132",
        "orbital_period": "1089.897673344497",
        "perihelion_distance": "1.028490288092325",
        "perihelion_argument": "8.843512239698718",
        "aphelion_distance": "3.116799164791633",
        "perihelion_time": "2452504.912658243964",
        "mean_anomaly": "357.8818589815474",
        "mean_motion": ".3303062377363296",
        "equinox": "J2000",
        "orbit_class": {
            "orbit_class_type": "AMO",
            "orbit_class_description": "Near-Earth asteroid orbits similar to that of 1221 Amor",
            "orbit_class_range": "1.017 AU < q (perihelion) < 1.3 AU"
        }
    },
    "is_sentry_object": false
}